[{"OBJECT_NAME":"GAOFEN-9 03","OBJECT_ID":"2020-039A","EPOCH":"2026-03-09T21:55:15.121344","MEAN_MOTION":15.30529116,"ECCENTRICITY":0.0013094,"INCLINATION":97.5219,"RA_OF_ASC_NODE":201.2158,"ARG_OF_PERICENTER":77.4533,"MEAN_ANOMALY":282.8172,"EPHEMERIS_TYPE":0,"CLASSIFICATION_TYPE":"U","NORAD_CAT_ID":45794,"ELEMENT_SET_NO":999,"REV_AT_EPOCH":31856,"BSTAR":0.00039258132,"MEAN_MOTION_DOT":0.00011544,"MEAN_MOTION_DDOT":0},{"OBJECT_NAME":"STARLINK-31566","OBJECT_ID":"2024-068W","EPOCH":"2026-03-09T07:03:01.801440","MEAN_MOTION":15.27575715,"ECCENTRICITY":9.159e-5,"INCLINATION":43.004,"RA_OF_ASC_NODE":36.6226,"ARG_OF_PERICENTER":268.5979,"MEAN_ANOMALY":91.4768,"EPHEMERIS_TYPE":0,"CLASSIFICATION_TYPE":"U","NORAD_CAT_ID":59475,"ELEMENT_SET_NO":999,"REV_AT_EPOCH":10846,"BSTAR":-1.8371019e-5,"MEAN_MOTION_DOT":-7.67e-6,"MEAN_MOTION_DDOT":0}]
